#aV2015 12 13  0  0  0.00000000     288 DD+AD WGS84 FIT  NGA
## 1875      0.00000000   300.00000000 57369 0.0000000000000
+   31     1  2  3  5  6  7  8  9 10 11 12 13 14 15 16 17 18
+         19 20 21 22 23 24 25 26 27 28 29 30 31 32  0  0  0
+          0  0  0  0  0  0  0  0  0  0  0  0  0  0  0  0  0
+          0  0  0  0  0  0  0  0  0  0  0  0  0  0  0  0  0
+          0  0  0  0  0  0  0  0  0  0  0  0  0  0  0  0  0
++         2  2  2  2  2  2  2  2  2  2  2  2  2  2  2  2  2
++         2  2  2  2  2  2  2  2  2  2  2  2  2  2  0  0  0
++         0  0  0  0  0  0  0  0  0  0  0  0  0  0  0  0  0
++         0  0  0  0  0  0  0  0  0  0  0  0  0  0  0  0  0
++         0  0  0  0  0  0  0  0  0  0  0  0  0  0  0  0  0
%c cc cc ccc ccc cccc cccc cccc cccc ccccc ccccc ccccc ccccc
%c cc cc ccc ccc cccc cccc cccc cccc ccccc ccccc ccccc ccccc
%f  0.0000000  0.000000000  0.00000000000  0.000000000000000
%f  0.0000000  0.000000000  0.00000000000  0.000000000000000
%i    0    0    0    0      0      0      0      0         0
%i    0    0    0    0      0      0      0      0         0
/*      NGA, ST. LOUIS,MO.                                  
/*   EPHEMERIS COMPUTED FROM 2 DAYS OF DATA                 
/*   EPOCHA v2.4 SMOOTHER                                   
/*   G1762 IERS2010 SATAF SATAPC                            
*  2015 12 13  7  0  0.00000000
P  1  13881.776193 -22170.851844   3831.073929      6.537933                    
V  1    385.418317   5745.426278  31448.544920      0.008786                    
P  2 -16979.840103   3023.701183 -19685.829287    597.778386                    
V  2   9091.098171 -24476.801395 -11797.710924      0.006694                    
P  3  16913.400934 -12594.306884 -16157.102206      2.954008                    
V  3  20603.144346    438.624474  21205.198492     -0.051990                    
P  5 -26593.789499   1978.406485   -278.761668   -165.548758                    
V  5     14.200309  -3136.641466 -31289.607640      0.036755                    
P  6 -11306.632651 -10869.965936 -21434.269625    111.300808                    
V  6  12260.995415 -24297.021901   5842.758131      0.064626                    
P  7   3614.202666 -23710.562888  11102.482424    477.535816                    
V  7   8623.669566 -11339.637211 -27719.604693     -0.012449                    
P  8  13222.157875  -7598.380796  21797.584509    -16.002540                    
V  8  15474.217136  22794.693371  -1445.502939     -0.014728                    
P  9  -5548.288635 -23038.212475 -12001.845183     27.491089                    
V  9  10660.336479  11154.920163 -26379.827599      0.079550                    
P 10  15880.531695  11438.797365  17980.530060     41.669406                    
V 10 -22623.202884   3328.207629  17825.875158      0.058573                    
P 11  11125.065700 -20901.226241  11418.193566   -621.446499                    
V 11   2784.250790  15846.433313  25160.153096     -0.020577                    
P 12 -19147.902418  10377.761155 -15152.554381    352.899956                    
V 12 -19112.720654  -1059.613038  23798.716799      0.029808                    
P 13 -16843.702963  -2441.498605  20230.179805   -171.003800                    
V 13 -11198.898249 -23464.580902 -12168.066473     -0.026838                    
P 14  14709.702865  22021.420528  -2650.089484     15.796181                    
V 14   -399.746522   4438.532181  31525.754230     -0.023642                    
P 15 -11734.841703  10595.436048  21216.302173   -286.918777                    
V 15 -16830.043216 -21541.755112   1784.131684     -0.019271                    
P 16  26762.725250    292.757806   -598.379422    -57.850121                    
V 16   -644.804288   1551.723194 -32134.477431      0.034680                    
P 17 -15031.563186 -21915.556876  -1979.193863   -196.405517                    
V 17    370.881808  -3607.703687  31799.244072     -0.010628                    
P 18   3989.286578  15867.518694  21452.552685    462.202326                    
V 18 -26044.720396   2787.335587   2571.503318      0.037239                    
P 19  -9131.127702 -24100.336713   5249.072423   -523.681129                    
V 19   5797.021025   4823.652661  31331.908832     -0.003559                    
P 20 -18625.719762  13138.880960  13527.853942    377.974596                    
V 20 -17764.751925   -343.305938 -23774.819726      0.027914                    
P 21   1107.237237  22724.666012  14169.391776   -499.186032                    
V 21  -9564.504894  14305.182787 -23709.110630     -0.022580                    
P 22  18591.417849  10470.922187  16161.729293    419.175739                    
V 22 -19812.181573   4419.016573  20046.334052      0.036156                    
P 23   5722.717207 -16663.886694 -19576.672428   -149.435807                    
V 23  15543.647119  20154.204894 -12932.132827     -0.020053                    
P 24 -14858.415825  20828.649689   6734.141370     -9.244227                    
V 24    784.818907  -9164.875544  30084.891070     -0.005498                    
P 25  -5753.773049  14816.762278 -21345.666694    -82.051124                    
V 25 -26835.143531   1271.785687   8325.265901     -0.060620                    
P 26  23750.049357   5550.607452 -10540.143213   -163.026281                    
V 26 -13153.913095   3493.046968 -27760.741390     -0.173320                    
P 27  18334.440993   3938.431902  18839.516969     43.907874                    
V 27  12472.596021  20421.103800 -16257.013202      0.033097                    
P 28 -14424.996059 -12570.165982  19087.638561    487.923953                    
V 28  22825.999653   -779.905105  17256.240690      0.026798                    
P 29   2149.360200  22311.007745 -14260.987093    648.084452                    
V 29 -10830.551775 -14599.559266 -24409.128809      0.014732                    
P 30  -4647.733607 -18357.509732  18591.015813     70.249641                    
V 30  13177.160165 -19712.575173 -16247.608164      0.052290                    
P 31  11908.661016   9161.987513 -21752.818734    291.489631                    
V 31 -13342.778590  24518.192400   3351.136978     -0.015454                    
P 32  24378.335145  -5664.527053  -8104.408501     46.337068                    
V 32  10343.004074   3534.535775  29427.855247      0.119844                    
EOF
